{
  "type": "FeatureCollection",
  "features": [
    {
      "type": "Feature",
      "properties": {
        "norad_id": 38001,
        "name": "COSMOS 2251 DEB",
        "group": "cosmos-2251-debris",
        "lat": -50.44911854816526,
        "lon": 114.53201857695502,
        "alt_km": 596.3466931710163,
        "timestamp": "2025-12-11T10:53:16.288093+00:00",
        "meta_object_name": "COSMOS 2251 DEB",
        "meta_object_id": "1993-036BRC",
        "meta_epoch": "2025-12-10T21:13:30.070848",
        "meta_mean_motion": 14.79039652,
        "meta_eccentricity": 0.0065474,
        "meta_inclination": 74.0007,
        "meta_ra_of_asc_node": 135.9844,
        "meta_arg_of_pericenter": 285.8073,
        "meta_mean_anomaly": 230.7209,
        "meta_ephemeris_type": 0,
        "meta_classification_type": "U",
        "meta_norad_cat_id": 38001,
        "meta_element_set_no": 999,
        "meta_rev_at_epoch": 74680,
        "meta_bstar": 0.0012082,
        "meta_mean_motion_dot": 9.24e-05,
        "meta_mean_motion_ddot": 0,
        "tle_line1": "1 38001U 93036BRC 25344.88437582  .00009240  00000+0  12082-2 0  9995",
        "tle_line2": "2 38001  74.0007 135.9844 0065474 285.8073 230.7209 14.79039652746809"
      },
      "geometry": {
        "type": "Point",
        "coordinates": [
          114.53201857695502,
          -50.44911854816526
        ]
      }
    },
    {
      "type": "Feature",
      "properties": {
        "norad_id": 38006,
        "name": "COSMOS 2251 DEB",
        "group": "cosmos-2251-debris",
        "lat": -56.22993676538824,
        "lon": 14.842732700112377,
        "alt_km": 707.7061858499674,
        "timestamp": "2025-12-11T10:53:16.288103+00:00",
        "meta_object_name": "COSMOS 2251 DEB",
        "meta_object_id": "1993-036BRH",
        "meta_epoch": "2025-12-10T03:36:37.956384",
        "meta_mean_motion": 14.45867865,
        "meta_eccentricity": 0.00758537,
        "meta_inclination": 73.8744,
        "meta_ra_of_asc_node": 42.933,
        "meta_arg_of_pericenter": 348.3853,
        "meta_mean_anomaly": 11.555,
        "meta_ephemeris_type": 0,
        "meta_classification_type": "U",
        "meta_norad_cat_id": 38006,
        "meta_element_set_no": 999,
        "meta_rev_at_epoch": 62922,
        "meta_bstar": 0.0047338847,
        "meta_mean_motion_dot": 0.00017443,
        "meta_mean_motion_ddot": 0,
        "tle_line1": "1 38006U 93036BRH 25344.15043931  .00017443  00000+0  47339-2 0  9998",
        "tle_line2": "2 38006  73.8744  42.9330 0075853 348.3853  11.5550 14.45867865629227"
      },
      "geometry": {
        "type": "Point",
        "coordinates": [
          14.842732700112377,
          -56.22993676538824
        ]
      }
    },
    {
      "type": "Feature",
      "properties": {
        "norad_id": 38054,
        "name": "COSMOS 2251 DEB",
        "group": "cosmos-2251-debris",
        "lat": 72.68660868144015,
        "lon": -24.738214227358807,
        "alt_km": 1273.8770133046737,
        "timestamp": "2025-12-11T10:53:16.288113+00:00",
        "meta_object_name": "COSMOS 2251 DEB",
        "meta_object_id": "1993-036BRL",
        "meta_epoch": "2025-12-06T19:35:06.065952",
        "meta_mean_motion": 13.62293123,
        "meta_eccentricity": 0.0360398,
        "meta_inclination": 73.9587,
        "meta_ra_of_asc_node": 275.4844,
        "meta_arg_of_pericenter": 254.7432,
        "meta_mean_anomaly": 133.9151,
        "meta_ephemeris_type": 0,
        "meta_classification_type": "U",
        "meta_norad_cat_id": 38054,
        "meta_element_set_no": 999,
        "meta_rev_at_epoch": 67099,
        "meta_bstar": 0.0049752628,
        "meta_mean_motion_dot": 5.934e-05,
        "meta_mean_motion_ddot": 0,
        "tle_line1": "1 38054U 93036BRL 25340.81604243  .00005934  00000+0  49753-2 0  9993",
        "tle_line2": "2 38054  73.9587 275.4844 0360398 254.7432 133.9151 13.62293123670997"
      },
      "geometry": {
        "type": "Point",
        "coordinates": [
          -24.738214227358807,
          72.68660868144015
        ]
      }
    },
    {
      "type": "Feature",
      "properties": {
        "norad_id": 38055,
        "name": "COSMOS 2251 DEB",
        "group": "cosmos-2251-debris",
        "lat": -24.873651707867346,
        "lon": 36.923707750838965,
        "alt_km": 674.4522386559102,
        "timestamp": "2025-12-11T10:53:16.288124+00:00",
        "meta_object_name": "COSMOS 2251 DEB",
        "meta_object_id": "1993-036BRM",
        "meta_epoch": "2025-12-10T08:27:42.055776",
        "meta_mean_motion": 14.76933211,
        "meta_eccentricity": 0.00657477,
        "meta_inclination": 74.0087,
        "meta_ra_of_asc_node": 211.4445,
        "meta_arg_of_pericenter": 339.5149,
        "meta_mean_anomaly": 134.8402,
        "meta_ephemeris_type": 0,
        "meta_classification_type": "U",
        "meta_norad_cat_id": 38055,
        "meta_element_set_no": 999,
        "meta_rev_at_epoch": 60647,
        "meta_bstar": 0.0011717243,
        "meta_mean_motion_dot": 8.521e-05,
        "meta_mean_motion_ddot": 0,
        "tle_line1": "1 38055U 93036BRM 25344.35257009  .00008521  00000+0  11717-2 0  9995",
        "tle_line2": "2 38055  74.0087 211.4445 0065747 339.5149 134.8402 14.76933211606475"
      },
      "geometry": {
        "type": "Point",
        "coordinates": [
          36.923707750838965,
          -24.873651707867346
        ]
      }
    },
    {
      "type": "Feature",
      "properties": {
        "norad_id": 38060,
        "name": "COSMOS 2251 DEB",
        "group": "cosmos-2251-debris",
        "lat": 44.931088367743655,
        "lon": 101.19035648953515,
        "alt_km": 675.273133881381,
        "timestamp": "2025-12-11T10:53:16.288135+00:00",
        "meta_object_name": "COSMOS 2251 DEB",
        "meta_object_id": "1993-036BRS",
        "meta_epoch": "2025-12-11T05:22:06.824640",
        "meta_mean_motion": 14.63841303,
        "meta_eccentricity": 0.0058042,
        "meta_inclination": 74.0431,
        "meta_ra_of_asc_node": 298.2163,
        "meta_arg_of_pericenter": 44.676,
        "meta_mean_anomaly": 315.9062,
        "meta_ephemeris_type": 0,
        "meta_classification_type": "U",
        "meta_norad_cat_id": 38060,
        "meta_element_set_no": 999,
        "meta_rev_at_epoch": 71942,
        "meta_bstar": 0.00092466,
        "meta_mean_motion_dot": 4.921e-05,
        "meta_mean_motion_ddot": 0,
        "tle_line1": "1 38060U 93036BRS 25345.22369010  .00004921  00000+0  92466-3 0  9995",
        "tle_line2": "2 38060  74.0431 298.2163 0058042  44.6760 315.9062 14.63841303719427"
      },
      "geometry": {
        "type": "Point",
        "coordinates": [
          101.19035648953515,
          44.931088367743655
        ]
      }
    },
    {
      "type": "Feature",
      "properties": {
        "norad_id": 38062,
        "name": "COSMOS 2251 DEB",
        "group": "cosmos-2251-debris",
        "lat": -41.57872259750339,
        "lon": -81.66634607944229,
        "alt_km": 591.587955341487,
        "timestamp": "2025-12-11T10:53:16.288146+00:00",
        "meta_object_name": "COSMOS 2251 DEB",
        "meta_object_id": "1993-036BRU",
        "meta_epoch": "2025-12-06T04:12:38.753856",
        "meta_mean_motion": 14.94290132,
        "meta_eccentricity": 0.00122346,
        "meta_inclination": 74.0094,
        "meta_ra_of_asc_node": 303.7202,
        "meta_arg_of_pericenter": 72.1633,
        "meta_mean_anomaly": 298.7726,
        "meta_ephemeris_type": 0,
        "meta_classification_type": "U",
        "meta_norad_cat_id": 38062,
        "meta_element_set_no": 999,
        "meta_rev_at_epoch": 62932,
        "meta_bstar": 0.0035053507,
        "meta_mean_motion_dot": 0.00037877,
        "meta_mean_motion_ddot": 0,
        "tle_line1": "1 38062U 93036BRU 25340.17544854  .00037877  00000+0  35054-2 0  9992",
        "tle_line2": "2 38062  74.0094 303.7202 0012234  72.1633 298.7726 14.94290132629324"
      },
      "geometry": {
        "type": "Point",
        "coordinates": [
          -81.66634607944229,
          -41.57872259750339
        ]
      }
    },
    {
      "type": "Feature",
      "properties": {
        "norad_id": 38064,
        "name": "COSMOS 2251 DEB",
        "group": "cosmos-2251-debris",
        "lat": 50.895440929595864,
        "lon": 147.22055950699053,
        "alt_km": 733.0311616572608,
        "timestamp": "2025-12-11T10:53:16.288156+00:00",
        "meta_object_name": "COSMOS 2251 DEB",
        "meta_object_id": "1993-036BRW",
        "meta_epoch": "2025-12-08T19:59:17.678400",
        "meta_mean_motion": 14.56247306,
        "meta_eccentricity": 0.00475278,
        "meta_inclination": 74.0223,
        "meta_ra_of_asc_node": 131.5539,
        "meta_arg_of_pericenter": 251.7836,
        "meta_mean_anomaly": 107.8151,
        "meta_ephemeris_type": 0,
        "meta_classification_type": "U",
        "meta_norad_cat_id": 38064,
        "meta_element_set_no": 999,
        "meta_rev_at_epoch": 71808,
        "meta_bstar": 0.0016943453,
        "meta_mean_motion_dot": 7.589e-05,
        "meta_mean_motion_ddot": 0,
        "tle_line1": "1 38064U 93036BRW 25342.83284350  .00007589  00000+0  16943-2 0  9994",
        "tle_line2": "2 38064  74.0223 131.5539 0047527 251.7836 107.8151 14.56247306718080"
      },
      "geometry": {
        "type": "Point",
        "coordinates": [
          147.22055950699053,
          50.895440929595864
        ]
      }
    }
  ]
}